OBJECT_NAME,OBJECT_ID,NORAD_CAT_ID,EPOCH,MEAN_MOTION,ECCENTRICITY,INCLINATION,RA_OF_ASC_NODE,ARG_OF_PERICENTER,MEAN_ANOMALY,MEAN_MOTION_DOT,MEAN_MOTION_DDOT,REV_AT_EPOCH,BSTAR,orbital_period_min,altitude_estimated,drag_index,energy_index,orbit_type,orbit_family,anomaly_score,anomaly_flag
STARLINK-31274,2024-041E,59078,2025-10-13 18:51:50.827680,15.27575237,0.00012494,42.9993,60.4037,259.2226,100.8485,-1.306e-05,0.0,9180,-3.7933874e-05,94.26704263863371,490.2003582121906,-4.7394582175600004e-09,0.002142716851811822,LEO,LEO,-0.2637167840527934,1
STARLINK-31257,2024-041F,59079,2025-10-13 18:27:47.201184,15.27576905,0.00017937,43.0062,60.2833,282.2021,77.863,-2.51e-06,0.0,9180,4.15364e-07,94.2669397060569,490.1953635987202,7.450384068e-11,0.0021427121724405303,LEO,LEO,-0.2598629760292479,1
STARLINK-31299,2024-041G,59080,2025-10-13 12:14:08.213856,15.27588022,0.00011405,43.0017,324.0602,218.1847,141.8925,-2.091e-05,0.0,9292,-6.6484918e-05,94.26625367975032,490.1620753908728,-7.582604897899999e-09,0.0021426809854395833,LEO,LEO,-0.254674140217768,1
STARLINK-31292,2024-041H,59081,2025-10-13 02:33:16.295904,15.27574808,0.00011339,43.0045,63.9118,270.3746,89.6976,1.569e-05,0.0,9169,6.654174e-05,94.2670691123364,490.2016427994986,7.5451678986e-09,0.0021427180553216644,LEO,LEO,-0.26579426291479324,1
STARLINK-31286,2024-041J,59082,2025-10-13 02:38:49.455168,15.27576054,7.12e-05,43.0048,63.9396,270.172,89.9051,-2.46e-06,0.0,9178,5.95031e-07,94.26699222139024,490.19791180865377,4.23662072e-11,0.0021427145598156947,LEO,LEO,-0.265750909014839,1
STARLINK-31252,2024-041K,59083,2025-10-13 15:03:14.584032,15.27605463,0.00012711,43.0007,338.0488,259.3111,100.7597,0.00036782,0.0,9278,0.0013384642,94.26517742166519,490.1098517164728,1.70132184462e-07,0.0021426320588199305,LEO,LEO,-0.24858186432923046,1
STARLINK-31261,2024-041L,59084,2025-10-13 19:01:05.670336,15.27575108,0.00010365,43.0006,60.4511,278.056,82.0174,-2.41e-06,0.0,9185,7.73042e-07,94.26705059925604,490.2007444866331,8.01258033e-11,0.0021427172137062833,LEO,LEO,-0.2614804728205264,1
STARLINK-31290,2024-041M,59085,2025-10-13 14:48:57.680064,15.27576447,8.049e-05,42.9968,47.0153,129.5525,230.5398,-1.032e-05,0.0,9208,-2.7993975e-05,94.266967969296,490.1967350204586,-2.25323504775e-09,0.0021427134573023436,LEO,LEO,-0.2654419056971919,1
STARLINK-31279,2024-041N,59086,2025-10-13 16:13:08.380416,15.27573941,0.00011351,43.0041,61.2955,273.5432,86.529,-1.197e-05,0.0,9183,-3.3983768e-05,94.26712261517952,490.20423892533563,-3.8574975056799995e-09,0.0021427204875929034,LEO,LEO,-0.2642275505221235,1
STARLINK-31266,2024-041P,59087,2025-10-13 02:44:21.999264,15.27580042,0.00020465,43.0064,63.9667,269.1201,90.9416,9.9e-07,0.0,9175,1.3142025e-05,94.26674612183758,490.18597027654596,2.6895154162499998e-09,0.0021427033720097855,LEO,LEO,-0.2660799097069918,1
STARLINK-31313,2024-041Q,59088,2025-10-13 02:48:04.271040,15.27589568,6.83e-05,43.003,63.9837,177.7724,182.3131,-3.512e-05,0.0,9170,-0.00011813063,94.26615827740453,490.1574461551236,-8.068322029000001e-09,0.0021426766484328418,LEO,LEO,-0.2628502068923214,1
STARLINK-31307,2024-041R,59089,2025-10-13 18:24:04.794624,15.27573019,0.00016943,43.0049,60.2663,252.3564,107.7102,-1.274e-05,0.0,9185,-3.6761005e-05,94.26717951215659,490.2069997446606,-6.228417077150001e-09,0.002142723074165016,LEO,LEO,-0.26148965433881527,1
STARLINK-31316,2024-041S,59090,2025-10-13 23:11:30.055776,15.27578748,5.226e-05,43.0042,12.4978,290.3053,69.7743,6.47e-06,0.0,9231,3.3009753e-05,94.26682597446033,490.18984498061855,1.72508969178e-09,0.002142707002145831,LEO,LEO,-0.24550860423437781,1
STARLINK-31310,2024-041U,59092,2025-10-13 16:22:23.090880,15.27569114,9.979e-05,43.0038,61.3501,287.7421,72.3322,-4.769e-05,0.0,9178,-0.00016396132,94.26742049198045,490.2186928334495,-1.6361700122800003e-08,0.0021427340292756204,LEO,LEO,-0.2544914430424698,1
STARLINK-31343,2024-041V,59093,2025-10-13 19:12:10.990080,15.27589329,0.00010557,42.9983,60.5088,262.2531,97.82,-0.00012924,0.0,9185,-0.0004608216,94.26617302587873,490.15816179972535,-4.8648936312e-08,0.002142677318900682,LEO,LEO,-0.25420804985409795,1
STARLINK-31295,2024-041X,59095,2025-10-13 18:40:44.313888,15.27577919,0.00019345,43.0049,60.3493,288.917,71.1472,-4.2e-07,0.0,9180,8.015448e-06,94.26687713204632,490.19232730936255,1.5505884156e-09,0.002142709327794251,LEO,LEO,-0.2574712909947773,1
STARLINK-31291,2024-041Y,59096,2025-10-13 18:37:03.397728,15.27570371,0.00011607,43.0014,60.3237,268.8978,91.1741,-1.042e-05,0.0,9180,-2.8343876e-05,94.26734292164403,490.2149288811215,-3.28987368732e-09,0.002142730502871053,LEO,LEO,-0.2650784664593096,1
HORACIO,2024-043A,59098,2025-10-13 23:19:19.947360,14.96805453,0.0012582,97.8225,52.9448,120.2558,239.991,5.275e-05,0.0,8781,0.00046508633,96.20488735619271,583.9114279240812,5.851716204059999e-07,0.0022317178701817438,LEO,LEO,-0.22951793871435122,1
MUSAT-2,2024-043B,59099,2025-10-13 07:37:24.681792,15.04038263,0.0008029,97.8299,55.4874,91.6807,268.5338,0.00013954,0.0,8792,0.001011473,95.74224508941234,561.5964118497022,8.121116716999999e-07,0.0022103051443771943,LEO,LEO,-0.2321747530348583,1
ICEYE-X38,2024-043C,59100,2025-10-13 22:20:39.333984,15.08940653,0.00027811,97.8109,60.0526,189.4946,170.623,9.497e-05,0.0,7448,0.0006054622,95.43118857173503,546.5727501117544,1.68385092442e-07,0.002195966375437416,LEO,LEO,-0.2442318346847266,1
ICEYE-X37,2024-043E,59102,2025-10-13 19:22:09.658272,15.03036121,0.0017369,97.8023,55.9649,120.4037,239.8907,6.173e-05,0.0,8803,0.00046143201,95.80608076417612,564.6775860746384,8.014612581690001e-07,0.0022132535473070596,LEO,LEO,-0.21906917700707285,1
ICEYE-X36,2024-043F,59103,2025-10-13 07:55:50.823840,15.0363238,0.00069748,97.8066,56.0907,78.1367,282.064,6.714e-05,0.0,8800,0.00049487171,95.76808927192695,562.8439226510964,3.451631202908e-07,0.0022114985828500604,LEO,LEO,-0.2377908376262739,1
