STARLINK-31274          
1 59078U 24041E   25286.78600495 -.00001306  00000+0 -37934-4 0  9993
2 59078  42.9993  60.4037 0001249 259.2226 100.8485 15.27575237 91809
STARLINK-31257          
1 59079U 24041F   25286.76929631 -.00000251  00000+0  41536-6 0  9990
2 59079  43.0062  60.2833 0001793 282.2021  77.8630 15.27576905 91802
STARLINK-31299          
1 59080U 24041G   25286.50981729 -.00002091  00000+0 -66485-4 0  9993
2 59080  43.0017 324.0602 0001140 218.1847 141.8925 15.27588022 92925
STARLINK-31292          
1 59081U 24041H   25286.10643861  .00001569  00000+0  66542-4 0  9993
2 59081  43.0045  63.9118 0001133 270.3746  89.6976 15.27574808 91693
STARLINK-31286          
1 59082U 24041J   25286.11029462 -.00000246  00000+0  59503-6 0  9993
2 59082  43.0048  63.9396 0000712 270.1720  89.9051 15.27576054 91789
STARLINK-31252          
1 59083U 24041K   25286.62725213  .00036782  00000+0  13385-2 0  9994
2 59083  43.0007 338.0488 0001271 259.3111 100.7597 15.27605463 92782
STARLINK-31261          
1 59084U 24041L   25286.79242674 -.00000241  00000+0  77304-6 0  9995
2 59084  43.0006  60.4511 0001036 278.0560  82.0174 15.27575108 91852
STARLINK-31290          
1 59085U 24041M   25286.61733426 -.00001032  00000+0 -27994-4 0  9995
2 59085  42.9968  47.0153 0000804 129.5525 230.5398 15.27576447 92085
STARLINK-31279          
1 59086U 24041N   25286.67579144 -.00001197  00000+0 -33984-4 0  9995
2 59086  43.0041  61.2955 0001135 273.5432  86.5290 15.27573941 91831
STARLINK-31266          
1 59087U 24041P   25286.11414351  .00000099  00000+0  13142-4 0  9995
2 59087  43.0064  63.9667 0002046 269.1201  90.9416 15.27580042 91753
STARLINK-31313          
1 59088U 24041Q   25286.11671610 -.00003512  00000+0 -11813-3 0  9996
2 59088  43.0030  63.9837 0000683 177.7724 182.3131 15.27589568 91702
STARLINK-31307          
1 59089U 24041R   25286.76672216 -.00001274  00000+0 -36761-4 0  9994
2 59089  43.0049  60.2663 0001694 252.3564 107.7102 15.27573019 91854
STARLINK-31316          
1 59090U 24041S   25286.96632009  .00000647  00000+0  33010-4 0  9999
2 59090  43.0042  12.4978 0000522 290.3053  69.7743 15.27578748 92315
STARLINK-31310          
1 59092U 24041U   25286.68221170 -.00004769  00000+0 -16396-3 0  9991
2 59092  43.0038  61.3501 0000997 287.7421  72.3322 15.27569114 91782
STARLINK-31343          
1 59093U 24041V   25286.80012720 -.00012924  00000+0 -46082-3 0  9992
2 59093  42.9983  60.5088 0001055 262.2531  97.8200 15.27589329 91852
STARLINK-31295          
1 59095U 24041X   25286.77829067 -.00000042  00000+0  80154-5 0  9997
2 59095  43.0049  60.3493 0001934 288.9170  71.1472 15.27577919 91800
STARLINK-31291          
1 59096U 24041Y   25286.77573377 -.00001042  00000+0 -28344-4 0  9992
2 59096  43.0014  60.3237 0001160 268.8978  91.1741 15.27570371 91809
HORACIO                 
1 59098U 24043A   25286.97175865  .00005275  00000+0  46509-3 0  9990
2 59098  97.8225  52.9448 0012582 120.2558 239.9910 14.96805453 87811
MUSAT-2                 
1 59099U 24043B   25286.31764678  .00013954  00000+0  10115-2 0  9991
2 59099  97.8299  55.4874 0008029  91.6807 268.5338 15.04038263 87924
ICEYE-X38               
1 59100U 24043C   25286.93101081  .00009497  00000+0  60546-3 0  9996
2 59100  97.8109  60.0526 0002781 189.4946 170.6230 15.08940653 74482
ICEYE-X37               
1 59102U 24043E   25286.80705623  .00006173  00000+0  46143-3 0  9991
2 59102  97.8023  55.9649 0017369 120.4037 239.8907 15.03036121 88038
ICEYE-X36               
1 59103U 24043F   25286.33044935  .00006714  00000+0  49487-3 0  9997
2 59103  97.8066  56.0907 0006974  78.1367 282.0640 15.03632380 88000
